CCSDS_OMM_VERS = 2.0
CREATION_DATE  = 
ORIGINATOR     = 

OBJECT_NAME    = DELTA 2 R/B(1)
OBJECT_ID      = 1990-008B
CENTER_NAME    = EARTH
REF_FRAME      = TEME
TIME_SYSTEM    = UTC
MEAN_ELEMENT_THEORY = SGP/SGP4

EPOCH          = 2025-12-23T00:30:02.267712
MEAN_MOTION    = 15.46028792
ECCENTRICITY   = .0110679
INCLINATION    = 35.6079
RA_OF_ASC_NODE = 314.1025
ARG_OF_PERICENTER = 271.7547
MEAN_ANOMALY   = 87.0512

EPHEMERIS_TYPE = 0
CLASSIFICATION_TYPE = U
NORAD_CAT_ID   = 20453
ELEMENT_SET_NO = 999
REV_AT_EPOCH   = 91422
BSTAR          = .74516E-3
MEAN_MOTION_DOT = .47913E-3
MEAN_MOTION_DDOT = 0

CCSDS_OMM_VERS = 2.0
CREATION_DATE  = 
ORIGINATOR     = 

OBJECT_NAME    = COSMOS 2058
OBJECT_ID      = 1990-010A
CENTER_NAME    = EARTH
REF_FRAME      = TEME
TIME_SYSTEM    = UTC
MEAN_ELEMENT_THEORY = SGP/SGP4

EPOCH          = 2025-12-24T02:03:21.716928
MEAN_MOTION    = 15.10578570
ECCENTRICITY   = .000937
INCLINATION    = 82.4708
RA_OF_ASC_NODE = 121.8713
ARG_OF_PERICENTER = 229.1662
MEAN_ANOMALY   = 130.8756

EPHEMERIS_TYPE = 0
CLASSIFICATION_TYPE = U
NORAD_CAT_ID   = 20465
ELEMENT_SET_NO = 999
REV_AT_EPOCH   = 93082
BSTAR          = .31702E-3
MEAN_MOTION_DOT = .5264E-4
MEAN_MOTION_DDOT = 0

CCSDS_OMM_VERS = 2.0
CREATION_DATE  = 
ORIGINATOR     = 

OBJECT_NAME    = SL-14 R/B
OBJECT_ID      = 1990-010B
CENTER_NAME    = EARTH
REF_FRAME      = TEME
TIME_SYSTEM    = UTC
MEAN_ELEMENT_THEORY = SGP/SGP4

EPOCH          = 2025-12-24T00:14:03.403968
MEAN_MOTION    = 14.83481323
ECCENTRICITY   = .0019608
INCLINATION    = 82.5023
RA_OF_ASC_NODE = 338.4618
ARG_OF_PERICENTER = 184.6882
MEAN_ANOMALY   = 175.4153

EPHEMERIS_TYPE = 0
CLASSIFICATION_TYPE = U
NORAD_CAT_ID   = 20466
ELEMENT_SET_NO = 999
REV_AT_EPOCH   = 91726
BSTAR          = .52612E-4
MEAN_MOTION_DOT = .458E-5
MEAN_MOTION_DDOT = 0

CCSDS_OMM_VERS = 2.0
CREATION_DATE  = 
ORIGINATOR     = 

OBJECT_NAME    = SL-14 R/B
OBJECT_ID      = 1990-018B
CENTER_NAME    = EARTH
REF_FRAME      = TEME
TIME_SYSTEM    = UTC
MEAN_ELEMENT_THEORY = SGP/SGP4

EPOCH          = 2025-12-23T21:17:38.571072
MEAN_MOTION    = 14.82057754
ECCENTRICITY   = .0016023
INCLINATION    = 82.5220
RA_OF_ASC_NODE = 293.9459
ARG_OF_PERICENTER = 347.0902
MEAN_ANOMALY   = 12.9900

EPHEMERIS_TYPE = 0
CLASSIFICATION_TYPE = U
NORAD_CAT_ID   = 20511
ELEMENT_SET_NO = 999
REV_AT_EPOCH   = 91135
BSTAR          = .61413E-4
MEAN_MOTION_DOT = .512E-5
MEAN_MOTION_DDOT = 0

CCSDS_OMM_VERS = 2.0
CREATION_DATE  = 
ORIGINATOR     = 

OBJECT_NAME    = HST
OBJECT_ID      = 1990-037B
CENTER_NAME    = EARTH
REF_FRAME      = TEME
TIME_SYSTEM    = UTC
MEAN_ELEMENT_THEORY = SGP/SGP4

EPOCH          = 2025-12-23T15:11:53.262240
MEAN_MOTION    = 15.28183481
ECCENTRICITY   = .0002378
INCLINATION    = 28.4656
RA_OF_ASC_NODE = 198.3344
ARG_OF_PERICENTER = 8.8876
MEAN_ANOMALY   = 351.1761

EPHEMERIS_TYPE = 0
CLASSIFICATION_TYPE = U
NORAD_CAT_ID   = 20580
ELEMENT_SET_NO = 999
REV_AT_EPOCH   = 76166
BSTAR          = .22218E-3
MEAN_MOTION_DOT = .6506E-4
MEAN_MOTION_DDOT = 0

CCSDS_OMM_VERS = 2.0
CREATION_DATE  = 
ORIGINATOR     = 

OBJECT_NAME    = SL-16 R/B
OBJECT_ID      = 1990-046B
CENTER_NAME    = EARTH
REF_FRAME      = TEME
TIME_SYSTEM    = UTC
MEAN_ELEMENT_THEORY = SGP/SGP4

EPOCH          = 2025-12-23T13:29:04.176096
MEAN_MOTION    = 14.14997863
ECCENTRICITY   = .00121624
INCLINATION    = 70.9992
RA_OF_ASC_NODE = 97.7949
ARG_OF_PERICENTER = 54.4664
MEAN_ANOMALY   = 305.7591

EPHEMERIS_TYPE = 0
CLASSIFICATION_TYPE = U
NORAD_CAT_ID   = 20625
ELEMENT_SET_NO = 999
REV_AT_EPOCH   = 83762
BSTAR          = -.74096399E-4
MEAN_MOTION_DOT = -.191E-5
MEAN_MOTION_DDOT = 0

CCSDS_OMM_VERS = 2.0
CREATION_DATE  = 
ORIGINATOR     = 

OBJECT_NAME    = COSMOS 2084
OBJECT_ID      = 1990-055A
CENTER_NAME    = EARTH
REF_FRAME      = TEME
TIME_SYSTEM    = UTC
MEAN_ELEMENT_THEORY = SGP/SGP4

EPOCH          = 2025-12-24T01:29:43.825056
MEAN_MOTION    = 15.05082546
ECCENTRICITY   = .00299
INCLINATION    = 62.7887
RA_OF_ASC_NODE = 233.4117
ARG_OF_PERICENTER = 176.1883
MEAN_ANOMALY   = 183.9451

EPHEMERIS_TYPE = 0
CLASSIFICATION_TYPE = U
NORAD_CAT_ID   = 20663
ELEMENT_SET_NO = 999
REV_AT_EPOCH   = 92493
BSTAR          = .21336E-3
MEAN_MOTION_DOT = .2873E-4
MEAN_MOTION_DDOT = 0

CCSDS_OMM_VERS = 2.0
CREATION_DATE  = 
ORIGINATOR     = 

OBJECT_NAME    = SL-6 R/B(2)
OBJECT_ID      = 1990-055D
CENTER_NAME    = EARTH
REF_FRAME      = TEME
TIME_SYSTEM    = UTC
MEAN_ELEMENT_THEORY = SGP/SGP4

EPOCH          = 2025-12-22T19:30:38.860992
MEAN_MOTION    = 15.03117285
ECCENTRICITY   = .00138334
INCLINATION    = 62.7811
RA_OF_ASC_NODE = 155.1870
ARG_OF_PERICENTER = 315.6810
MEAN_ANOMALY   = 44.3181

EPHEMERIS_TYPE = 0
CLASSIFICATION_TYPE = U
NORAD_CAT_ID   = 20666
ELEMENT_SET_NO = 999
REV_AT_EPOCH   = 92663
BSTAR          = .1531148E-3
MEAN_MOTION_DOT = .1882E-4
MEAN_MOTION_DDOT = 0

CCSDS_OMM_VERS = 2.0
CREATION_DATE  = 
ORIGINATOR     = 

OBJECT_NAME    = SL-8 R/B
OBJECT_ID      = 1990-078B
CENTER_NAME    = EARTH
REF_FRAME      = TEME
TIME_SYSTEM    = UTC
MEAN_ELEMENT_THEORY = SGP/SGP4

EPOCH          = 2025-12-24T04:14:55.925088
MEAN_MOTION    = 14.86341333
ECCENTRICITY   = .0370291
INCLINATION    = 82.9062
RA_OF_ASC_NODE = 319.0690
ARG_OF_PERICENTER = 267.3966
MEAN_ANOMALY   = 88.4824

EPHEMERIS_TYPE = 0
CLASSIFICATION_TYPE = U
NORAD_CAT_ID   = 20775
ELEMENT_SET_NO = 999
REV_AT_EPOCH   = 79807
BSTAR          = .50026E-3
MEAN_MOTION_DOT = .16203E-3
MEAN_MOTION_DDOT = 0

CCSDS_OMM_VERS = 2.0
CREATION_DATE  = 
ORIGINATOR     = 

OBJECT_NAME    = SL-8 R/B
OBJECT_ID      = 1991-006B
CENTER_NAME    = EARTH
REF_FRAME      = TEME
TIME_SYSTEM    = UTC
MEAN_ELEMENT_THEORY = SGP/SGP4

EPOCH          = 2025-12-24T02:28:17.757120
MEAN_MOTION    = 13.77492306
ECCENTRICITY   = .002124
INCLINATION    = 82.9416
RA_OF_ASC_NODE = 226.2606
ARG_OF_PERICENTER = 246.0344
MEAN_ANOMALY   = 278.3412

EPHEMERIS_TYPE = 0
CLASSIFICATION_TYPE = U
NORAD_CAT_ID   = 21088
ELEMENT_SET_NO = 999
REV_AT_EPOCH   = 75366
BSTAR          = .10662E-3
MEAN_MOTION_DOT = .121E-5
MEAN_MOTION_DDOT = 0

CCSDS_OMM_VERS = 2.0
CREATION_DATE  = 
ORIGINATOR     = 

OBJECT_NAME    = OKEAN-3
OBJECT_ID      = 1991-039A
CENTER_NAME    = EARTH
REF_FRAME      = TEME
TIME_SYSTEM    = UTC
MEAN_ELEMENT_THEORY = SGP/SGP4

EPOCH          = 2025-12-24T02:59:05.021088
MEAN_MOTION    = 15.04187743
ECCENTRICITY   = .0013621
INCLINATION    = 82.5165
RA_OF_ASC_NODE = 50.0280
ARG_OF_PERICENTER = 222.3431
MEAN_ANOMALY   = 137.6745

EPHEMERIS_TYPE = 0
CLASSIFICATION_TYPE = U
NORAD_CAT_ID   = 21397
ELEMENT_SET_NO = 999
REV_AT_EPOCH   = 85367
BSTAR          = .19859E-3
MEAN_MOTION_DOT = .2789E-4
MEAN_MOTION_DDOT = 0

CCSDS_OMM_VERS = 2.0
CREATION_DATE  = 
ORIGINATOR     = 

OBJECT_NAME    = COSMOS 2151
OBJECT_ID      = 1991-042A
CENTER_NAME    = EARTH
REF_FRAME      = TEME
TIME_SYSTEM    = UTC
MEAN_ELEMENT_THEORY = SGP/SGP4

EPOCH          = 2025-12-24T02:22:58.639584
MEAN_MOTION    = 14.99727691
ECCENTRICITY   = .0011686
INCLINATION    = 82.4965
RA_OF_ASC_NODE = 156.5558
ARG_OF_PERICENTER = 319.7702
MEAN_ANOMALY   = 40.2655

EPHEMERIS_TYPE = 0
CLASSIFICATION_TYPE = U
NORAD_CAT_ID   = 21422
ELEMENT_SET_NO = 999
REV_AT_EPOCH   = 85186
BSTAR          = .14159E-3
MEAN_MOTION_DOT = .1776E-4
MEAN_MOTION_DDOT = 0

