DELTA 2 R/B(1)          
1 20453U 90008B   25357.02085958  .00047913  00000+0  74516-3 0  9999
2 20453  35.6079 314.1025 0110679 271.7547  87.0512 15.46028792914224
COSMOS 2058             
1 20465U 90010A   25358.08566802  .00005264  00000+0  31702-3 0  9997
2 20465  82.4708 121.8713 0009370 229.1662 130.8756 15.10578570930829
SL-14 R/B               
1 20466U 90010B   25358.00976162  .00000458  00000+0  52612-4 0  9998
2 20466  82.5023 338.4618 0019608 184.6882 175.4153 14.83481323917262
SL-14 R/B               
1 20511U 90018B   25357.88725198  .00000512  00000+0  61413-4 0  9993
2 20511  82.5220 293.9459 0016023 347.0902  12.9900 14.82057754911351
HST                     
1 20580U 90037B   25357.63325535  .00006506  00000+0  22218-3 0  9992
2 20580  28.4656 198.3344 0002378   8.8876 351.1761 15.28183481761668
SL-16 R/B               
1 20625U 90046B   25357.56185389 -.00000191  00000+0 -74096-4 0  9993
2 20625  70.9992  97.7949 0012162  54.4664 305.7591 14.14997863837627
COSMOS 2084             
1 20663U 90055A   25358.06231279  .00002873  00000+0  21336-3 0  9996
2 20663  62.7887 233.4117 0029900 176.1883 183.9451 15.05082546924936
SL-6 R/B(2)             
1 20666U 90055D   25356.81294978  .00001882  00000+0  15311-3 0  9990
2 20666  62.7811 155.1870 0013833 315.6810  44.3181 15.03117285926636
SL-8 R/B                
1 20775U 90078B   25358.17703617  .00016203  00000+0  50026-3 0  9997
2 20775  82.9062 319.0690 0370291 267.3966  88.4824 14.86341333798070
SL-8 R/B                
1 21088U 91006B   25358.10298330  .00000121  00000+0  10662-3 0  9995
2 21088  82.9416 226.2606 0021240 246.0344 278.3412 13.77492306753663
OKEAN-3                 
1 21397U 91039A   25358.12436367  .00002789  00000+0  19859-3 0  9999
2 21397  82.5165  50.0280 0013621 222.3431 137.6745 15.04187743853678
COSMOS 2151             
1 21422U 91042A   25358.09928981  .00001776  00000+0  14159-3 0  9999
2 21422  82.4965 156.5558 0011686 319.7702  40.2655 14.99727691851868
